{
  "type": "FeatureCollection",
  "features": [
    {"type": "Feature", "id": 1, "geometry": {"type": "Point", "coordinates": [37.584938, 55.737169]}, "properties": {}},
    {"type": "Feature", "id": 2, "geometry": {"type": "Point", "coordinates": [37.584079, 55.737477]}, "properties": {}},
    {"type": "Feature", "id": 3, "geometry": {"type": "Point", "coordinates": [37.583007, 55.736923]}, "properties": {}},
    {"type": "Feature", "id": 4, "geometry": {"type": "Point", "co": [37.582406, 55.736743]}, "properties": {}},
    {"type": "Feature", "id": 5, "geometry": {"type": "Point", "coordinates": [37.581219, 55.737140]}, "properties": {}},
    {"type": "Feature", "id": 6, "geometry": {"type": "Point", "coordinates": [37.579695, 55.737434]}, "properties": {}},
    {"type": "Feature", "id": 7, "geometry": {"type": "Point", "coordinates": [37.576097, 55.737660]}, "properties": {}},
    {"type": "Feature", "id": 8, "geometry": {"type": "Point", "coordinates": [37.575430, 55.737375]}, "properties": {}},
    {"type": "Feature", "id": 9, "geometry": {"type":": [37.574525, 55.735138]}, "properties": {}},
    {"type": "Feature", "id": 12, "geometry": {"type": "Point", "coordinates": [37.574102, 55.734958]}, "properties": {}},
    {"type": "Feature", "id": 13, "geometry": {"type": "Point", "coordinates": [37.573140, 55.733251]}, "properties": {}},
    {"type": "Feature", "id": 14, "geometry": {"type": "Point", "coordinates": [37.573451, 55.733069]}, "properties": {}},
    {"type": "Feature", "id": 15, "geometry": {"type": "Point", "coordinates": [37.573456, 55.732741]}, "properties": {}},
    {"type": "Feature", "id": 16, "geometry": {"type": "Point", "coordinates": [37.572281, 55.732509]}, "properties": {}},
    {"type": "Feature", "id": 17, "geometry": {"type": "Point", "coordinates": [37.570331, 55.731660]}, "properties": {}},
    {"type": "Feature", "id": 18, "geometry": {"type": "Point", "coordinates": [37.570434, 55.731430]}, "properties": {}},
    {"type": "Feature", "id": 19, "geometry": {"type": "Point", "coordinates": [37.570248, 55.731277]}, "properties": {}},
    {"type": "Feature", "id": 20, "geometry": {"type": "Point", "coordinates": [37.571788, 55.730408]}, "properties": {}},
    {"type": "Feature", "id": 21, "geometry": {"type": "Point", "coordinates": [37.572142, 55.730431]}, "properties": {}},
    {"type": "Feature", "id": 22, "geometry": {"type": "Point", "coordinates": [37.572381, 55.730325]}, "properties": {}},
    {"type": "Feature", "id": 23, "geometry": {"type": "Point", "coordinates": [37.571930, 55.730099]}, "properties": {}},
    {"type": "Feature", "id": 24, "geometry": {"type": "Point", "coordinates": [37.569934, 55.728993]}, "properties": {}},
    {"type": "Feature", "id": 25, "geometry": {"type": "Point", "coordinates": [37.566750, 55.727762]}, "properties": {}},
    {"type": "Feature", "id": 26, "geometry": {"type": "Point", "coordinates": [37.565257, 55.729185]}, "properties": {}},
    {"type": "Feature", "id": 27, "geometry": {"type": "Point", "coordinates": [37.564383, 55.729246]}, "properties": {}},
    {"type": "Feature", "id": 28, "geometry": {"type": "Point", "coordinates": [37.563278, 55.729985]}, "properties": {}},
    {"type": "Feature", "id": 29, "geometry": {"type": "Point", "coordinates": [37.563316, 55.730192]}, "properties": {}},
    {"type": "Feature", "id": 30, "geometry": {"type": "Point", "coordinates": [37.563146, 55.730305]}, "properties": {}},
    {"type": "Feature", "id": 31, "geometry": {"type": "Point", "coordinates": [37.562986, 55.730296]}, "properties": {}},
    {"type": "Feature", "id": 32, "geometry": {"type": "Point", "coordinates": [37.562876, 55.730187]}, "properties": {}},
    {"type": "Feature", "id": 33, "geometry": {"type": "
