{
  "type": "FeatureCollection",
  "features": [
    {"type": "Feature", "properties": {"id": 1, "name": "1", "title": "Point 1"}, "geometry": {"type": "Point", "coordinates": [37.585919, 55.735186]}},
    {"type": "Feature", "properties": {"id": 2, "name": "2", "title": "Point 2"}, "geometry": {"type": "Point", "coordinates": [37.585463, 55.735483]}},
    {"type": "Feature", "properties": {"id": 3, "name": "3", "title": "Point 3"}, "geometry": {"type": "Point", "coordinates": [37.584823, 55.735774]}},
    {"type": "Feature", "properties": {"id": 4, "name": "4", "title": "Point 4"}, "geometry": {"type": "Point", "coordinates": [37.584183, 55.735860]}},
    {"type": "Feature", "properties": {"id": 5, "name": "5", "title": "Point 5"}, "geometry": {"type": "Point", "coordinates": [37.582846, 55.736847]}},
    {"type": "Feature", "properties": {"id": 6, "name": "6", "title": "Point 6"}, "geometry": {"type": "Point", "coordinates": [37.581947, 55.736541]}},
    {"type": "Feature", "properties": {"id": 7, "name": "7", "title": "Point 7"}, "geometry": {"type": "Point", "coordinates": [37.582522, 55.736116]}},
    {"type": "Feature", "properties": {"id": 8, "name": "8", "title": "Point 8"}, "geometry": {"type": "Point", "coordinates": [37.579995, 55.734845]}},
    {"type": "Feature", "properties": {"id": 9, "name": "9", "title": "Point 9"}, "geometry": {"type": "Point", "coordinates": [37.578514, 55.734977]}},
    {"type": "Feature", "properties": {"id": 10, "name": "10", "title": "Point 10"}, "geometry": {"type": "Point", "coordinates": [37.577409, 55.734741]}},
    {"type": "Feature", "properties": {"id": 11, "name": "11", "title": "Point 11"}, "geometry": {"type": "Point", "coordinates": [37.575790, 55.734032]}},
    {"type": "Feature", "properties": {"id": 12, "name": "12", "title": "Point 12"}, "geometry": {"type": "Point", "coordinates": [37.575531, 55.733480]}},
    {"type": "Feature", "properties": {"id": 13, "name": "13", "title": "Point 13"}, "geometry": {"type": "Point", "coordinates": [37.576063, 55.733024]}},
    {"type": "Feature", "properties": {"id": 14, "name": "14", "title": "Point 14"}, "geometry": {"type": "Point", "coordinates": [37.576667, 55.732805]}},
    {"type": "Feature", "properties": {"id": 15, "name": "15", "title": "Point 15"}, "geometry": {"type": "Point", "coordinates": [37.578182, 55.731457]}},
    {"type": "Feature", "properties": {"id": 16, "name": "16", "title": "Point 16"}, "geometry": {"type": "Point", "coordinates": [37.573194, 55.729582]}},
    {"type": "Feature", "properties": {"id": 17, "name": "17", "title": "Point 17"}, "geometry": {"type": "Point", "coordinates": [37.572296, 55.730104]}},
    {"type": "Feature", "properties": {"id": 18, "name": "18", "title": "Point 18"}, "geometry": {"type": "Point", "coordinates": [37.571844, 55.730581]}},
    {"type": "Feature", "properties": {"id": 19, "name": "19", "title": "Point 19"}, "geometry": {"type": "Point", "coordinates": [37.570187, 55.731597]}},
    {"type": "Feature", "properties": {"id": 20, "name": "20", "title": "Point 20"}, "geometry": {"type": "Point", "coordinates": [37.569183, 55.730885]}},
    {"type": "Feature", "properties": {"id": 21, "name": "21", "title": "Point 21"}, "geometry": {"type": "Point", "coordinates": [37.567510, 55.730178]}},
    {"type": "Feature", "properties": {"id": 22, "name": "22", "title": "Point 22"}, "geometry": {"type": "Point", "coordinates": [37.567299, 55.729970]}},
    {"type": "Feature", "properties": {"id": 23, "name": "23", "title": "Point 23"}, "geometry": {"type": "Point", "coordinates": [37.567080, 55.729431]}},
    {"type": "Feature", "properties": {"id": 24, "name": "24", "title": "Point 24"}, "geometry": {"type": "Point", "coordinates": [37.566175, 55.729290]}},
    {"type": "Feature", "properties": {"id": 25, "name": "25", "title": "Point 25"}, "geometry": {"type": "Point", "coordinates": [37.566285, 55.728941]}},
    {"type": "Feature", "properties": {"id": 26, "name": "26", "title": "Point 26"}, "geometry": {"type": "Point", "coordinates": [37.566409, 55.728200]}},
    {"type": "Feature", "properties": {"id": 27, "name": "27", "title": "Point 27"}, "geometry": {"type": "Point", "coordinates": [37.566801, 55.727649]}},
    {"type": "Feature", "properties": {"id": 28, "name": "28", "title": "Point 28"}, "geometry": {"type": "Point", "coordinates": [37.566508, 55.727575]}},
    {"type": "Feature", "properties": {"id": 29, "name": "29", "title": "Point 29"}, "geometry": {"type": "Point", "coordinates": [37.566215, 55.728044]}},
    {"type": "Feature", "properties": {"id": 30, "name": "30", "title": "Point 30"}, "geometry": {"type": "Point", "coordinates": [37.565519, 55.728892]}},
    {"type": "Feature", "properties": {"id": 31, "name": "31", "title": "Point 31"}, "geometry": {"type": "Point", "coordinates": [37.564560, 55.729370]}},
    {"type": "Feature", "properties": {"id": 32, "name": "32", "title": "Point 32"}, "geometry": {"type": "Point", "coordinates": [37.562215, 55.729687]}},
    {"type": "Feature", "properties": {"id": 33, "name": "33", "title": "Point 33"}, "geometry": {"type": "Point", "coordinates": [37.562878, 55.730193]}},
    {"type": "Feature", "properties": {"id": 34, "name": "34", "title": "Point 34"}, "geometry": {"type": "Point", "coordinates": [37.563249, 55.730002]}},
    {"type": "Feature", "properties": {"id": 35, "name": "35", "title": "Point 35"}, "geometry": {"type": "Point", "coordinates": [37.560814, 55.727552]}},
    {"type": "Feature", "properties": {"id": 36, "name": "36", "title": "Point 36"}, "geometry": {"type": "Point", "coordinates": [37.559775, 55.727020]}},
    {"type": "Feature", "properties": {"id": 37, "name": "37", "title": "Point 37"}, "geometry": {"type": "Point", "coordinates": [37.559911, 55.726794]}},
    {"type": "Feature", "properties": {"id": 38, "name": "38", "title": "Point 38"}, "geometry": {"type": "Point", "coordinates": [37.560483, 55.727096]}},
    {"type": "Feature", "properties": {"id": 39, "name": "39", "title": "Point 39"}, "geometry": {"type": "Point", "coordinates": [37.561688, 55.726491]}},
    {"type": "Feature", "properties": {"id": 40, "name": "40", "title": "Point 40"}, "geometry": {"type": "Point", "coordinates": [37.562881, 55.726491]}},
    {"type": "Feature", "properties": {"id": 41, "name": "41", "title": "Point 41"}, "geometry": {"type": "Point", "coordinates": [37.563150, 55.726226]}},
    {"type": "Feature", "properties": {"id": 42, "name": "42", "title": "Point 42"}, "geometry": {"type": "Point", "coordinates": [37.563547, 55.725960]}},
    {"type": "Feature", "properties": {"id": 43, "name": "43", "title": "Point 43"}, "geometry": {"type": "Point", "coordinates": [37.564015, 55.726572]}},
    {"type": "Feature", "properties": {"id": 44, "name": "44", "title": "Point 44"}, "geometry": {"type": "Point", "coordinates": [37.565382, 55.726829]}},
    {"type": "Feature", "properties": {"id": 45, "name": "45", "title": "Point 45"}, "geometry": {"type": "Point", "coordinates": [37.565775, 55.726487]}},
    {"type": "Feature", "properties": {"id": 46, "name": "46", "title": "Point 46"}, "geometry": {"type": "Point", "coordinates": [37.566238, 55.725985]}},
    {"type": "Feature", "properties": {"id": 47, "name": "47", "title": "Point 47"}, "geometry": {"type": "Point", "coordinates": [37.565217, 55.725590]}},
    {"type": "Feature", "properties": {"id": 48, "name": "48", "title": "Point 48"}, "geometry": {"type": "Point", "coordinates": [37.565585, 55.725170]}},
    {"type": "Feature", "properties": {"id": 49, "name": "49", "title": "Point 49"}, "geometry": {"type": "Point", "coordinates": [37.566579, 55.724748]}},
    {"type": "Feature", "properties": {"id": 50, "name": "50", "title": "Point 50"}, "geometry": {"type": "Point", "coordinates": [37.567607, 55.724821]}},
    {"type": "Feature", "properties": {"id": 51, "name": "51", "title": "Point 51"}, "geometry": {"type": "Point", "coordinates": [37.567877, 55.724413]}},
    {"type": "Feature", "properties": {"id": 52, "name": "52", "title": "Point 52"}, "geometry": {"type": "Point", "coordinates": [37.568658, 55.724274]}},
    {"type": "Feature", "properties": {"id": 53, "name": "53", "title": "Point 53"}, "geometry": {"type": "Point", "coordinates": [37.569263, 55.724509]}}, 
    {"type": "Feature", "properties": {"id": 54, "name": "54", "title": "Point 54"}, "geometry": {"type": "Point", "coordinates": [37.569606, 55.725193]}},
    {"type": "Feature", "properties": {"id": 55, "name": "55", "title": "Point 55"}, "geometry": {"type": "Point", "coordinates": [37.572430, 55.725609]}},
    {"type": "Feature", "properties": {"id": 56, "name": "56", "title": "Point 56"}, "geometry": {"type": "Point", "coordinates": [37.573700, 55.724287]}},
    {"type": "Feature", "properties": {"id": 57, "name": "57", "title": "Point 57"}, "geometry": {"type": "Point", "coordinates": [37.574456, 55.724905]}}, 
    {"type": "Feature", "properties": {"id": 58, "name": "58", "title": "Point 58"}, "geometry": {"type": "Point", "coordinates": [37.577815, 55.726161]}},
    {"type": "Feature", "properties": {"id": 59, "name": "59", "title": "Point 59"}, "geometry": {"type": "Point", "coordinates": [37.578141, 55.726389]}},
    {"type": "Feature", "properties": {"id": 60, "name": "60", "title": "Point 60"}, "geometry": {"type": "Point", "coordinates": [37.578682, 55.727033]}},
    {"type": "Feature", "properties": {"id": 61, "name": "61", "title": "Point 61"}, "geometry": {"type": "Point", "coordinates": [37.579895, 55.727729]}},
    {"type": "Feature", "properties": {"id": 62, "name": "62", "title": "Point 62"}, "geometry": {"type": "Point", "coordinates": [37.580188, 55.727977]}},
    {"type": "Feature", "properties": {"id": 63, "name": "63", "title": "Point 63"}, "geometry": {"type": "Point", "coordinates": [37.579054, 55.729953]}},
    {"type": "Feature", "properties": {"id": 64, "name": "64", "title": "Point 64"}, "geometry": {"type": "Point", "coordinates": [37.580925, 55.730574]}},
    {"type": "Feature", "properties": {"id": 65, "name": "65", "title": "Point 65"}, "geometry": {"type": "Point", "coordinates": [37.582758, 55.730877]}},
    {"type": "Feature", "properties": {"id": 66, "name": "66", "title": "Point 66"}, "geometry": {"type": "Point", "coordinates": [37.583483, 55.731881]}},
    {"type": "Feature", "properties": {"id": 67, "name": "67", "title": "Point 67"}, "geometry": {"type": "Point", "coordinates": [37.585222, 55.732436]}},
    {"type": "Feature", "properties": {"id": 68, "name": "68", "title": "Point 68"}, "geometry": {"type": "Point", "coordinates": [37.586141, 55.732521]}},
    {"type": "Feature", "properties": {"id": 69, "name": "69", "title": "Point 69"}, "geometry": {"type": "Point", "coordinates": [37.587309, 55.733034]}},
    {"type": "Feature", "properties": {"id": 70, "name": "70", "title": "Point 70"}, "geometry": {"type": "Point", "coordinates": [37.585919, 55.735186]}}
  ]
}
